[
  {
    "name": "KUIPER-00189",
    "noradId": "68574",
    "line1": "1 68574U 26072B   26180.14097707  .00001585  00000+0  23690-3 0  9990",
    "line2": "2 68574  51.8960 145.2747 0000541  99.5516 260.5507 14.79917217 12855"
  },
  {
    "name": "KUIPER-00192",
    "noradId": "68575",
    "line1": "1 68575U 26072C   26179.91008098  .00002759  00000+0  39083-3 0  9996",
    "line2": "2 68575  51.8992 141.3080 0000694  80.2635 279.8406 14.79931570 12899"
  },
  {
    "name": "KUIPER-00193",
    "noradId": "68576",
    "line1": "1 68576U 26072D   26179.88528318  .00002215  00000+0  34358-3 0  9992",
    "line2": "2 68576  51.9040 131.0618 0000188 242.2006 117.8936 14.76752787 13032"
  },
  {
    "name": "KUIPER-00194",
    "noradId": "68577",
    "line1": "1 68577U 26072E   26179.87943874  .00032984  00000+0  43232-2 0  9996",
    "line2": "2 68577  51.9018 138.9587 0000780  55.5975 304.5061 14.80042841 12926"
  },
  {
    "name": "KUIPER-00229",
    "noradId": "68578",
    "line1": "1 68578U 26072F   26180.14391576  .00002940  00000+0  41462-3 0  9998",
    "line2": "2 68578  51.9003 142.7732 0000530  88.1032 271.9991 14.79924195 12899"
  },
  {
    "name": "KUIPER-00230",
    "noradId": "68579",
    "line1": "1 68579U 26072G   26179.55998444  .00023225  00000+0  61563-3 0  9992",
    "line2": "2 68579  51.8757 121.6711 0003418  63.2271 296.9065 15.38221241 13130"
  },
  {
    "name": "KUIPER-00231",
    "noradId": "68580",
    "line1": "1 68580U 26072H   26180.50003471 -.01164235  00000+0 -47661-1 0  9999",
    "line2": "2 68580  51.8798 117.4006 0004092  76.1922 287.0245 15.26499217  5344"
  },
  {
    "name": "KUIPER-00234",
    "noradId": "68581",
    "line1": "1 68581U 26072J   26179.87547083  .00002098  00000+0  32843-3 0  9993",
    "line2": "2 68581  51.8992 138.5694 0000769 207.2385 152.8535 14.76557729 12925"
  },
  {
    "name": "KUIPER-00236",
    "noradId": "68582",
    "line1": "1 68582U 26072K   26179.57648373  .00024834  00000+0  66644-3 0  9993",
    "line2": "2 68582  51.8761 121.7822 0003420  53.4241 306.7060 15.37800930 13136"
  },
  {
    "name": "KUIPER-00244",
    "noradId": "68583",
    "line1": "1 68583U 26072L   26180.50003471 -.00035427  00000+0 -46502-2 0  9995",
    "line2": "2 68583  51.8987 126.2127 0001579  72.9124 300.6428 14.79863142  5089"
  },
  {
    "name": "KUIPER-00253",
    "noradId": "68584",
    "line1": "1 68584U 26072M   26179.88713512 -.00002845  00000+0 -34407-3 0  9999",
    "line2": "2 68584  51.9018 131.4211 0000949  93.3357 266.7714 14.79968546 13020"
  },
  {
    "name": "KUIPER-00254",
    "noradId": "68585",
    "line1": "1 68585U 26072N   26179.58057704  .00002995  00000+0  42158-3 0  9997",
    "line2": "2 68585  51.9020 135.2773 0002041  63.7452 296.3720 14.79954781 12943"
  },
  {
    "name": "KUIPER-00263",
    "noradId": "68586",
    "line1": "1 68586U 26072P   26180.50003471 -.01161264  00000+0 -73520-1 0  9997",
    "line2": "2 68586  51.8910 118.3242 0003211  88.1720 150.9987 15.11552132  3179"
  },
  {
    "name": "KUIPER-00269",
    "noradId": "68587",
    "line1": "1 68587U 26072Q   26180.50003471 -.01902527  00000+0 -15690+0 0  9995",
    "line2": "2 68587  51.8912 119.5440 0004121  85.2145 347.1097 15.02448698  3718"
  },
  {
    "name": "KUIPER-00272",
    "noradId": "68588",
    "line1": "1 68588U 26072R   26179.87632098  .00003039  00000+0  42745-3 0  9999",
    "line2": "2 68588  51.8981 141.4501 0001048  70.6015 289.5060 14.79934262 12883"
  }
]