{"fetchedAt":"2026-06-29T18:07:57.361Z","satellites":[{"id":"68574","name":"KUIPER-00189","constellationId":"kuiper","omm":{"OBJECT_NAME":"KUIPER-00189","OBJECT_ID":"2026-072B","EPOCH":"2026-06-29T03:23:00.418848","MEAN_MOTION":14.79917217,"ECCENTRICITY":0.0000541,"INCLINATION":51.896,"RA_OF_ASC_NODE":145.2747,"ARG_OF_PERICENTER":99.5516,"MEAN_ANOMALY":260.5507,"EPHEMERIS_TYPE":0,"CLASSIFICATION_TYPE":"U","NORAD_CAT_ID":68574,"ELEMENT_SET_NO":999,"REV_AT_EPOCH":1285,"BSTAR":0.0002369,"MEAN_MOTION_DOT":0.00001585,"MEAN_MOTION_DDOT":0}},{"id":"68575","name":"KUIPER-00192","constellationId":"kuiper","omm":{"OBJECT_NAME":"KUIPER-00192","OBJECT_ID":"2026-072C","EPOCH":"2026-06-28T21:50:30.996672","MEAN_MOTION":14.7993157,"ECCENTRICITY":0.00006948,"INCLINATION":51.8992,"RA_OF_ASC_NODE":141.308,"ARG_OF_PERICENTER":80.2635,"MEAN_ANOMALY":279.8406,"EPHEMERIS_TYPE":0,"CLASSIFICATION_TYPE":"U","NORAD_CAT_ID":68575,"ELEMENT_SET_NO":999,"REV_AT_EPOCH":1289,"BSTAR":0.00039083008,"MEAN_MOTION_DOT":0.00002759,"MEAN_MOTION_DDOT":0}},{"id":"68576","name":"KUIPER-00193","constellationId":"kuiper","omm":{"OBJECT_NAME":"KUIPER-00193","OBJECT_ID":"2026-072D","EPOCH":"2026-06-28T21:14:48.466752","MEAN_MOTION":14.76752787,"ECCENTRICITY":0.00001881,"INCLINATION":51.904,"RA_OF_ASC_NODE":131.0618,"ARG_OF_PERICENTER":242.2006,"MEAN_ANOMALY":117.8936,"EPHEMERIS_TYPE":0,"CLASSIFICATION_TYPE":"U","NORAD_CAT_ID":68576,"ELEMENT_SET_NO":999,"REV_AT_EPOCH":1303,"BSTAR":0.00034358416,"MEAN_MOTION_DOT":0.00002215,"MEAN_MOTION_DDOT":0}},{"id":"68577","name":"KUIPER-00194","constellationId":"kuiper","omm":{"OBJECT_NAME":"KUIPER-00194","OBJECT_ID":"2026-072E","EPOCH":"2026-06-28T21:06:23.507136","MEAN_MOTION":14.80042841,"ECCENTRICITY":0.00007805,"INCLINATION":51.9018,"RA_OF_ASC_NODE":138.9587,"ARG_OF_PERICENTER":55.5975,"MEAN_ANOMALY":304.5061,"EPHEMERIS_TYPE":0,"CLASSIFICATION_TYPE":"U","NORAD_CAT_ID":68577,"ELEMENT_SET_NO":999,"REV_AT_EPOCH":1292,"BSTAR":0.0043231748,"MEAN_MOTION_DOT":0.00032984,"MEAN_MOTION_DDOT":0}},{"id":"68578","name":"KUIPER-00229","constellationId":"kuiper","omm":{"OBJECT_NAME":"KUIPER-00229","OBJECT_ID":"2026-072F","EPOCH":"2026-06-29T03:27:14.321664","MEAN_MOTION":14.79924195,"ECCENTRICITY":0.000053,"INCLINATION":51.9003,"RA_OF_ASC_NODE":142.7732,"ARG_OF_PERICENTER":88.1032,"MEAN_ANOMALY":271.9991,"EPHEMERIS_TYPE":0,"CLASSIFICATION_TYPE":"U","NORAD_CAT_ID":68578,"ELEMENT_SET_NO":999,"REV_AT_EPOCH":1289,"BSTAR":0.00041462,"MEAN_MOTION_DOT":0.0000294,"MEAN_MOTION_DDOT":0}},{"id":"68579","name":"KUIPER-00230","constellationId":"kuiper","omm":{"OBJECT_NAME":"KUIPER-00230","OBJECT_ID":"2026-072G","EPOCH":"2026-06-28T13:26:22.655616","MEAN_MOTION":15.38221241,"ECCENTRICITY":0.0003418,"INCLINATION":51.8757,"RA_OF_ASC_NODE":121.6711,"ARG_OF_PERICENTER":63.2271,"MEAN_ANOMALY":296.9065,"EPHEMERIS_TYPE":0,"CLASSIFICATION_TYPE":"U","NORAD_CAT_ID":68579,"ELEMENT_SET_NO":999,"REV_AT_EPOCH":1313,"BSTAR":0.00061563272,"MEAN_MOTION_DOT":0.00023225,"MEAN_MOTION_DDOT":0}},{"id":"68580","name":"KUIPER-00231","constellationId":"kuiper","omm":{"OBJECT_NAME":"KUIPER-00231","OBJECT_ID":"2026-072H","EPOCH":"2026-06-29T12:00:02.998944","MEAN_MOTION":15.26499217,"ECCENTRICITY":0.0004092,"INCLINATION":51.8798,"RA_OF_ASC_NODE":117.4006,"ARG_OF_PERICENTER":76.1922,"MEAN_ANOMALY":287.0245,"EPHEMERIS_TYPE":0,"CLASSIFICATION_TYPE":"U","NORAD_CAT_ID":68580,"ELEMENT_SET_NO":999,"REV_AT_EPOCH":534,"BSTAR":-0.047661,"MEAN_MOTION_DOT":-0.01164235,"MEAN_MOTION_DDOT":0}},{"id":"68581","name":"KUIPER-00234","constellationId":"kuiper","omm":{"OBJECT_NAME":"KUIPER-00234","OBJECT_ID":"2026-072J","EPOCH":"2026-06-28T21:00:40.679712","MEAN_MOTION":14.76557729,"ECCENTRICITY":0.00007691,"INCLINATION":51.8992,"RA_OF_ASC_NODE":138.5694,"ARG_OF_PERICENTER":207.2385,"MEAN_ANOMALY":152.8535,"EPHEMERIS_TYPE":0,"CLASSIFICATION_TYPE":"U","NORAD_CAT_ID":68581,"ELEMENT_SET_NO":999,"REV_AT_EPOCH":1292,"BSTAR":0.00032843355,"MEAN_MOTION_DOT":0.00002098,"MEAN_MOTION_DDOT":0}},{"id":"68582","name":"KUIPER-00236","constellationId":"kuiper","omm":{"OBJECT_NAME":"KUIPER-00236","OBJECT_ID":"2026-072K","EPOCH":"2026-06-28T13:50:08.194272","MEAN_MOTION":15.3780093,"ECCENTRICITY":0.00034206,"INCLINATION":51.8761,"RA_OF_ASC_NODE":121.7822,"ARG_OF_PERICENTER":53.4241,"MEAN_ANOMALY":306.706,"EPHEMERIS_TYPE":0,"CLASSIFICATION_TYPE":"U","NORAD_CAT_ID":68582,"ELEMENT_SET_NO":999,"REV_AT_EPOCH":1313,"BSTAR":0.00066643597,"MEAN_MOTION_DOT":0.00024834,"MEAN_MOTION_DDOT":0}},{"id":"68583","name":"KUIPER-00244","constellationId":"kuiper","omm":{"OBJECT_NAME":"KUIPER-00244","OBJECT_ID":"2026-072L","EPOCH":"2026-06-29T12:00:02.998944","MEAN_MOTION":14.79863142,"ECCENTRICITY":0.0001579,"INCLINATION":51.8987,"RA_OF_ASC_NODE":126.2127,"ARG_OF_PERICENTER":72.9124,"MEAN_ANOMALY":300.6428,"EPHEMERIS_TYPE":0,"CLASSIFICATION_TYPE":"U","NORAD_CAT_ID":68583,"ELEMENT_SET_NO":999,"REV_AT_EPOCH":508,"BSTAR":-0.0046502,"MEAN_MOTION_DOT":-0.00035427,"MEAN_MOTION_DDOT":0}},{"id":"68584","name":"KUIPER-00253","constellationId":"kuiper","omm":{"OBJECT_NAME":"KUIPER-00253","OBJECT_ID":"2026-072M","EPOCH":"2026-06-28T21:17:28.474368","MEAN_MOTION":14.79968546,"ECCENTRICITY":0.0000949,"INCLINATION":51.9018,"RA_OF_ASC_NODE":131.4211,"ARG_OF_PERICENTER":93.3357,"MEAN_ANOMALY":266.7714,"EPHEMERIS_TYPE":0,"CLASSIFICATION_TYPE":"U","NORAD_CAT_ID":68584,"ELEMENT_SET_NO":999,"REV_AT_EPOCH":1302,"BSTAR":-0.00034406878,"MEAN_MOTION_DOT":-0.00002845,"MEAN_MOTION_DDOT":0}},{"id":"68585","name":"KUIPER-00254","constellationId":"kuiper","omm":{"OBJECT_NAME":"KUIPER-00254","OBJECT_ID":"2026-072N","EPOCH":"2026-06-28T13:56:01.856256","MEAN_MOTION":14.79954781,"ECCENTRICITY":0.00020417,"INCLINATION":51.902,"RA_OF_ASC_NODE":135.2773,"ARG_OF_PERICENTER":63.7452,"MEAN_ANOMALY":296.372,"EPHEMERIS_TYPE":0,"CLASSIFICATION_TYPE":"U","NORAD_CAT_ID":68585,"ELEMENT_SET_NO":999,"REV_AT_EPOCH":1294,"BSTAR":0.0004215806,"MEAN_MOTION_DOT":0.00002995,"MEAN_MOTION_DDOT":0}},{"id":"68586","name":"KUIPER-00263","constellationId":"kuiper","omm":{"OBJECT_NAME":"KUIPER-00263","OBJECT_ID":"2026-072P","EPOCH":"2026-06-29T12:00:02.998944","MEAN_MOTION":15.11552132,"ECCENTRICITY":0.0003211,"INCLINATION":51.891,"RA_OF_ASC_NODE":118.3242,"ARG_OF_PERICENTER":88.172,"MEAN_ANOMALY":150.9987,"EPHEMERIS_TYPE":0,"CLASSIFICATION_TYPE":"U","NORAD_CAT_ID":68586,"ELEMENT_SET_NO":999,"REV_AT_EPOCH":317,"BSTAR":-0.07352,"MEAN_MOTION_DOT":-0.01161264,"MEAN_MOTION_DDOT":0}},{"id":"68587","name":"KUIPER-00269","constellationId":"kuiper","omm":{"OBJECT_NAME":"KUIPER-00269","OBJECT_ID":"2026-072Q","EPOCH":"2026-06-29T12:00:02.998944","MEAN_MOTION":15.02448698,"ECCENTRICITY":0.0004121,"INCLINATION":51.8912,"RA_OF_ASC_NODE":119.544,"ARG_OF_PERICENTER":85.2145,"MEAN_ANOMALY":347.1097,"EPHEMERIS_TYPE":0,"CLASSIFICATION_TYPE":"U","NORAD_CAT_ID":68587,"ELEMENT_SET_NO":999,"REV_AT_EPOCH":371,"BSTAR":-0.1569,"MEAN_MOTION_DOT":-0.01902527,"MEAN_MOTION_DDOT":0}},{"id":"68588","name":"KUIPER-00272","constellationId":"kuiper","omm":{"OBJECT_NAME":"KUIPER-00272","OBJECT_ID":"2026-072R","EPOCH":"2026-06-28T21:01:54.132672","MEAN_MOTION":14.79934262,"ECCENTRICITY":0.00010483,"INCLINATION":51.8981,"RA_OF_ASC_NODE":141.4501,"ARG_OF_PERICENTER":70.6015,"MEAN_ANOMALY":289.506,"EPHEMERIS_TYPE":0,"CLASSIFICATION_TYPE":"U","NORAD_CAT_ID":68588,"ELEMENT_SET_NO":999,"REV_AT_EPOCH":1288,"BSTAR":0.0004274499,"MEAN_MOTION_DOT":0.00003039,"MEAN_MOTION_DDOT":0}}]}